2022-060F               
1 52802U 22060F   22159.69096869  .01641942  75456-5  11327-2 0  9994
2 52802  41.4702 269.1814 0095350 150.1676  87.4086 16.05869837   619
NILESAT 301             
1 52817U 22061A   22164.87000000 -.00000289  00000+0  00000+0 0  9992
2 52817   1.9320  47.1310 2246534 178.7900  74.1310  1.01117393    73
FALCON 9 R/B            
1 52818U 22061B   22163.85815134  .00029576  00000+0  36703-1 0  9992
2 52818  18.6834  44.1727 7692812 180.9744 347.9610  1.75903183    62
